[{"OBJECT_NAME":"STARLINK-3948","OBJECT_ID":"2022-051P","EPOCH":"2026-03-09T10:52:55.094880","MEAN_MOTION":15.08830607,"ECCENTRICITY":0.00013077,"INCLINATION":53.2161,"RA_OF_ASC_NODE":129.9475,"ARG_OF_PERICENTER":96.0274,"MEAN_ANOMALY":264.0867,"EPHEMERIS_TYPE":0,"CLASSIFICATION_TYPE":"U","NORAD_CAT_ID":52546,"ELEMENT_SET_NO":999,"REV_AT_EPOCH":21141,"BSTAR":-0.00012723095,"MEAN_MOTION_DOT":-2.312e-5,"MEAN_MOTION_DDOT":0},{"OBJECT_NAME":"COSMOS 2251 DEB","OBJECT_ID":"1993-036AJA","EPOCH":"2026-02-11T08:52:27.880032","MEAN_MOTION":15.05018922,"ECCENTRICITY":0.00700444,"INCLINATION":73.9325,"RA_OF_ASC_NODE":48.614,"ARG_OF_PERICENTER":290.1885,"MEAN_ANOMALY":69.178,"EPHEMERIS_TYPE":0,"CLASSIFICATION_TYPE":"U","NORAD_CAT_ID":35071,"ELEMENT_SET_NO":999,"REV_AT_EPOCH":68448,"BSTAR":0.0010407924,"MEAN_MOTION_DOT":0.00015602,"MEAN_MOTION_DDOT":0}]
